CUTE-1 (CO-55)          
1 27844U 03031E   26159.25615715  .00000298  00000+0  14775-3 0  9992
2 27844  98.6735 167.9273 0008945 204.6801 155.3951 14.24330308190408
CUBESAT XI-IV (CO-57)   
1 27848U 03031J   26158.95900341  .00000277  00000+0  14071-3 0  9990
2 27848  98.6766 167.3539 0008515 225.8669 134.1810 14.23616071190069
CUBESAT XI-V            
1 28895U 05043F   26158.95798337  .00001615  00000+0  26180-3 0  9999
2 28895  98.2976 314.3867 0013088 231.5140 128.4894 14.72607812100390
CUTE-1.7+APD II (CO-65) 
1 32785U 08021C   26159.23300556  .00005519  00000+0  34936-3 0  9990
2 32785  97.8271 140.4661 0010356  64.8771 295.3530 15.09365894983840
CANX-2                  
1 32790U 08021H   26158.91725339  .00003784  00000+0  26693-3 0  9993
2 32790  97.8630 138.5159 0012099  78.2854 281.9729 15.05549911983416
SEEDS II (CO-66)        
1 32791U 08021J   26158.92960025  .00019726  00000+0  63151-3 0  9991
2 32791  97.7519 156.3875 0002464  31.6806 328.4582 15.32435639985877
SWISSCUBE               
1 35932U 09051B   26159.00067640  .00001155  00000+0  23775-3 0  9991
2 35932  98.4042  66.7288 0005474 236.3791 123.6888 14.62465103887819
BEESAT-1                
1 35933U 09051C   26159.27915543  .00000867  00000+0  18388-3 0  9998
2 35933  98.3972  66.6661 0003902 252.4599 107.6175 14.61706375887880
ITUPSAT1                
1 35935U 09051E   26158.98819542  .00000873  00000+0  19037-3 0  9998
2 35935  98.4056  65.5723 0006074 268.4530  91.5974 14.60427678887397
TISAT 1                 
1 36799U 10035E   26159.10083922  .00022207  00000+0  73458-3 0  9993
2 36799  98.0701 104.8459 0000137 151.1351 208.9896 15.31365756866318
AEROCUBE 4.5A           
1 38767U 12048K   26159.05699665  .00322925  45039-4  10948-2 0  9997
2 38767  64.6264  60.1548 0019497 216.0532 143.9313 15.89325478371203
STRAND-1                
1 39090U 13009E   26159.00516149  .00000318  00000+0  12142-3 0  9997
2 39090  98.3920 339.4657 0007415 256.8127 103.2233 14.37158036695742
BRITE-AUSTRIA           
1 39091U 13009F   26158.73546881  .00000212  00000+0  86658-4 0  9990
2 39091  98.3993 338.4054 0008957 268.4216  91.5944 14.36538507695699
NEE-01 PEGASO           
1 39151U 13018B   26158.88677027  .00003701  00000+0  35587-3 0  9990
2 39151  98.1215 302.7307 0012437 188.3963 171.7049 14.93617855709312
POPACS 2                
1 39269U 13055E   26158.71430171  .00012643  00000+0  21568-3 0  9999
2 39269  80.9909 155.0345 0417126 224.2238 132.4940 14.90985736661809
POPACS 3                
1 39270U 13055F   26159.25475412  .00009835  00000+0  23131-3 0  9995
2 39270  81.0011 238.8689 0552906  97.1682 269.2687 14.55953150637259
ZACUBE-1 (TSHEPISOSAT)  
1 39417U 13066B   26159.14203031  .00004487  00000+0  34934-3 0  9995
2 39417  97.8095 121.4299 0039988 279.5341  80.1364 15.01133704679379
WNISAT-1                
1 39423U 13066H   26159.15243792  .00000740  00000+0  14377-3 0  9998
2 39423  97.7192 308.9505 0161680 260.2779  98.0129 14.58048486665412
TRITON-1                
1 39427U 13066M   26159.31387057  .00003057  00000+0  36980-3 0  9991
2 39427  97.8247  69.3225 0088302 263.2835  95.8323 14.81678206672773
GOMX-1                  
1 39430U 13066Q   26159.26561264  .00002358  00000+0  35718-3 0  9994
2 39430  97.6493   0.2910 0130100 105.8726 255.6865 14.69427317668602
CUBEBUG-2 (LO-74)       
1 39440U 13066AA  26158.75189183  .00005333  00000+0  49259-3 0  9995
2 39440  97.8907 107.6906 0059310  59.6684 301.0383 14.93689124675583
NEE-02 KRYSAOR          
1 39441U 13066AB  26159.05520187  .00002722  00000+0  30090-3 0  9995
2 39441  97.8887  98.3357 0067674  99.4326 261.4548 14.86581020674842
FUNCUBE-1 (AO-73)       
1 39444U 13066AE  26159.17346100  .00005422  00000+0  33894-3 0  9997
2 39444  97.8275 130.4319 0034724 232.3552 127.4524 15.09382626678308
UWE-3                   
1 39446U 13066AG  26159.12517313  .00004591  00000+0  39518-3 0  9995
2 39446  97.8687 115.1387 0048867 351.6421   8.3981 14.96953360676222
BRITE-CA1 (TORONTO)     
1 40020U 14033L   26158.93320210  .00000797  00000+0  12746-3 0  9994
2 40020  97.9728 288.0323 0077480 307.1538  52.2610 14.72664620640856
DUCHIFAT-1              
1 40021U 14033M   26159.12664082  .00107166  00000+0  11780-2 0  9999
2 40021  98.0465 217.0282 0004621 132.1747 227.9902 15.62815586654330
NANOSATC-BR1            
1 40024U 14033Q   26159.05715204  .00017706  00000+0  59014-3 0  9990
2 40024  98.0729 190.6378 0003448 188.9886 171.1292 15.31168300652585
QB50P1                  
1 40025U 14033R   26158.98870317  .00009215  00000+0  45488-3 0  9995
2 40025  98.0970 169.4906 0007153 252.8101 107.2349 15.18121687651633
QB50P2                  
1 40032U 14033Y   26158.98608825  .00007741  00000+0  41770-3 0  9998
2 40032  98.0757 155.2946 0007031 193.2890 166.8157 15.15044033651273
PERSEUS-M2              
1 40037U 14033AD  26159.23120856  .00001946  00000+0  18113-3 0  9991
2 40037  97.9975 109.5902 0011372 338.4533  21.6207 14.95490494649445
